[{"OBJECT_NAME":"HAWK-9A","OBJECT_ID":"2024-066E","EPOCH":"2026-03-09T10:20:39.002208","MEAN_MOTION":14.98777479,"ECCENTRICITY":0.00036271,"INCLINATION":45.6088,"RA_OF_ASC_NODE":72.7153,"ARG_OF_PERICENTER":244.6286,"MEAN_ANOMALY":115.4219,"EPHEMERIS_TYPE":0,"CLASSIFICATION_TYPE":"U","NORAD_CAT_ID":59446,"ELEMENT_SET_NO":999,"REV_AT_EPOCH":10486,"BSTAR":0.00023458946,"MEAN_MOTION_DOT":2.638e-5,"MEAN_MOTION_DDOT":0},{"OBJECT_NAME":"STARLINK-35959","OBJECT_ID":"2025-280G","EPOCH":"2026-03-09T22:45:14.984640","MEAN_MOTION":14.9832818,"ECCENTRICITY":0.00025614,"INCLINATION":70.0022,"RA_OF_ASC_NODE":333.84,"ARG_OF_PERICENTER":273.0904,"MEAN_ANOMALY":86.9962,"EPHEMERIS_TYPE":0,"CLASSIFICATION_TYPE":"U","NORAD_CAT_ID":66827,"ELEMENT_SET_NO":999,"REV_AT_EPOCH":1611,"BSTAR":0.0002026814,"MEAN_MOTION_DOT":2.326e-5,"MEAN_MOTION_DDOT":0}]
